0 DELTA 1 DEB
1 37638U 78026HZ  13277.68633581  .00000614  00000-0  39506-3 0   695
2 37638 099.2083 093.5484 0058714 119.0212 241.7290 14.06120760500731
0 DELTA 1 DEB
1 37638U 78026HZ  13278.32673860  .00000646  00000-0  41412-3 0   707
2 37638 099.2107 094.2043 0060427 118.0437 242.7031 14.06122325500822
0 DELTA 1 DEB
1 37638U 78026HZ  13287.71937127  .00000659  00000-0  42164-3 0   719
2 37638 099.2161 103.7669 0061553 092.2415 268.5904 14.06135627502143
0 DELTA 1 DEB
1 37638U 78026HZ  13290.70791032  .00000681  00000-0  43486-3 0   729
2 37638 099.2165 106.8076 0061662 083.9720 276.8567 14.06140394502560
